2025-197C               
1 65490U 25197C   25251.16005615  .00005255  00000+0  23957-3 0  9992
2 65490  97.4119  76.9333 0014092 282.0844  77.8812 15.20990825   398
2025-197D               
1 65491U 25197D   25251.15999517  .00006845  00000+0  31070-3 0  9996
2 65491  97.4117  76.9332 0013873 282.8608  77.1078 15.21031443   398
2025-199A               
1 65544U 25199A   25252.89514378  .00000374  00000+0  14807-3 0  9997
2 65544  85.9956 169.8880 0011386 245.6913 114.3089 14.26256754   465
2025-199B               
1 65545U 25199B   25252.89447083  .00000030  00000+0  45544-5 0  9999
2 65545  85.9973 169.8883 0011191 253.8226 106.1734 14.26539292   467
2025-199C               
1 65546U 25199C   25252.89424599  .00000758  00000+0  30572-3 0  9997
2 65546  85.9969 169.8879 0010816 256.6103 103.3883 14.26625603   462
2025-199D               
1 65547U 25199D   25252.89375534  .00000534  00000+0  21184-3 0  9993
2 65547  85.9972 169.8877 0010973 258.8692 101.1265 14.26897682   464
2025-199E               
1 65548U 25199E   25252.89363278  .00000194  00000+0  71785-4 0  9991
2 65548  85.9960 169.8871 0010003 261.8832  98.1225 14.26933873   420
2025-199F               
1 65549U 25199F   25252.95011319  .00000577  00000+0  10135-3 0  9991
2 65549  86.0175 169.8128 0070422  59.6437 301.1713 14.64046147   476
GEESAT-5 A              
1 65550U 25201A   25252.34048141  .00000688  00000+0  93083-4 0  9990
2 65550  49.9867 262.8328 0013303 295.1592  64.7969 14.91040571    81
GEESAT-5 B              
1 65551U 25201B   25252.27343075  .00000697  00000+0  93750-4 0  9998
2 65551  49.9857 263.1444 0013148 297.7319  62.2288 14.91155499    67
GEESAT-5 C              
1 65552U 25201C   25252.34043921  .00000693  00000+0  93299-4 0  9998
2 65552  49.9876 262.8312 0013195 297.4470  62.5129 14.91169978    71
GEESAT-5 D              
1 65553U 25201D   25252.40743502  .00000689  00000+0  92873-4 0  9990
2 65553  49.9827 262.5206 0013354 297.5916  62.3669 14.91212614    84
GEESAT-5 E              
1 65554U 25201E   25252.47444148  .00000673  00000+0  91248-4 0  9990
2 65554  49.9894 262.2006 0013652 298.1023  61.8538 14.91221893    90
GEESAT-5 F              
1 65555U 25201F   25252.40740456  .00000694  00000+0  93208-4 0  9996
2 65555  49.9825 262.5151 0014108 298.8047  61.1478 14.91288217    87
GEESAT-5 G              
1 65556U 25201G   25252.40739615  .00000695  00000+0  93248-4 0  9997
2 65556  49.9906 262.5123 0014261 297.9828  61.9670 14.91306379    86
GEESAT-5 H              
1 65557U 25201H   25252.07234145  .00000223  00000+0  46519-4 0  9995
2 65557  49.9929 264.1068 0013917 253.1617 106.7798 14.91248053    44
GEESAT-5 J              
1 65558U 25201J   25252.07233346  .00000230  00000+0  47081-4 0  9991
2 65558  49.9888 264.0826 0014327 276.8884  83.0427 14.91374563    35
GEESAT-5 K              
1 65559U 25201K   25252.87634525  .00000179  00000+0  41981-4 0  9999
2 65559  49.9873 260.3148 0015081 300.5636  59.3817 14.91444896   153
2025-201L               
1 65560U 25201L   25252.06618591  .00019762  00000+0  38163-3 0  9992
2 65560  50.0767 264.0578 0189559 345.1477  14.3960 15.30594805    35
2025-201M               
1 65561U 25201M   25252.06618815  .00021096  00000+0  40549-3 0  9996
2 65561  50.0751 264.0595 0190084 345.2518  14.2942 15.30585862    32
JIELONG-3 R/B           
1 65562U 25201N   25252.06154975  .01548372  10378-4  46793-3 0  9992
2 65562  50.1551 264.0579 0336928 346.7889  12.4421 15.61970384    33
YAOGAN-45               
1 65563U 25202A   25252.65735740  .00038817  00000+0  40609-3 0  9997
2 65563  20.0005  35.8037 3556493 127.8642 269.9958  8.41043634    62
CZ-7A R/B               
1 65564U 25202B   25252.65065426  .03244670 -12454-4  41644-3 0  9996
2 65564  20.0798  34.0947 3585544 128.9731 268.8621  8.52493297    64
